[{"OBJECT_NAME":"STARLINK-5664","OBJECT_ID":"2023-013AF","EPOCH":"2026-03-09T09:48:29.980512","MEAN_MOTION":15.02540615,"ECCENTRICITY":0.00011636,"INCLINATION":43.0035,"RA_OF_ASC_NODE":314.2916,"ARG_OF_PERICENTER":296.1617,"MEAN_ANOMALY":63.9106,"EPHEMERIS_TYPE":0,"CLASSIFICATION_TYPE":"U","NORAD_CAT_ID":55360,"ELEMENT_SET_NO":999,"REV_AT_EPOCH":17152,"BSTAR":-6.9926632e-5,"MEAN_MOTION_DOT":-1.148e-5,"MEAN_MOTION_DDOT":0},{"OBJECT_NAME":"DELTA 1 R\/B","OBJECT_ID":"1972-058B","EPOCH":"2026-03-09T22:14:45.150144","MEAN_MOTION":14.86907844,"ECCENTRICITY":0.00837103,"INCLINATION":98.4819,"RA_OF_ASC_NODE":287.4026,"ARG_OF_PERICENTER":251.5853,"MEAN_ANOMALY":107.6247,"EPHEMERIS_TYPE":0,"CLASSIFICATION_TYPE":"U","NORAD_CAT_ID":6127,"ELEMENT_SET_NO":999,"REV_AT_EPOCH":68503,"BSTAR":0.00031466372,"MEAN_MOTION_DOT":2.928e-5,"MEAN_MOTION_DDOT":0}]
